[
    {
        "Altitude(m)": 617719.782648983,
        "Argument of Periapsis(deg)": 0.0,
        "Eccentricity": 0.0,
        "Inclination(deg)": 60.0,
        "Latitude(deg)": -41.10267179573447,
        "Longitude(deg)": -34.9052992518619,
        "Mean Anomaly(deg)": -130.9091,
        "RAAN(deg)": 215.0,
        "Satellite Name": "Test1 960",
        "Satellite Number": 960,
        "Semi-Major Axis(m)": 6980739.136638005,
        "Time(s)": 0
    },
    {
        "Altitude(m)": 617911.3183761962,
        "Argument of Periapsis(deg)": 0.00010418945913296404,
        "Eccentricity": 0.0,
        "Inclination(deg)": 60.0,
        "Latitude(deg)": -41.565863221258326,
        "Longitude(deg)": -34.40089157685247,
        "Mean Anomaly(deg)": -130.28899385453815,
        "RAAN(deg)": 214.99957995086024,
        "Satellite Name": "Test1 960",
        "Satellite Number": 960,
        "Semi-Major Axis(m)": 6980739.136638005,
        "Time(s)": 10
    },
    {
        "Altitude(m)": 618101.7288688838,
        "Argument of Periapsis(deg)": 0.0002083789182659281,
        "Eccentricity": 0.0,
        "Inclination(deg)": 60.0,
        "Latitude(deg)": -42.0263761316277,
        "Longitude(deg)": -33.888676503302,
        "Mean Anomaly(deg)": -129.66888770907633,
        "RAAN(deg)": 214.99915990172053,
        "Satellite Name": "Test1 960",
        "Satellite Number": 960,
        "Semi-Major Axis(m)": 6980739.136638005,
        "Time(s)": 20
    },
    {
        "Altitude(m)": 618290.9410998118,
        "Argument of Periapsis(deg)": 0.00031256837739889213,
        "Eccentricity": 0.0,
        "Inclination(deg)": 60.0,
        "Latitude(deg)": -42.484130279798826,
        "Longitude(deg)": -33.368459345975616,
        "Mean Anomaly(deg)": -129.04878156361445,
        "RAAN(deg)": 214.99873985258077,
        "Satellite Name": "Test1 960",
        "Satellite Number": 960,
        "Semi-Major Axis(m)": 6980739.136638005,
        "Time(s)": 30
    },
    {
        "Altitude(m)": 618478.8824189743,
        "Argument of Periapsis(deg)": 0.0004167578365318562,
        "Eccentricity": 0.0,
        "Inclination(deg)": 60.0,
        "Latitude(deg)": -42.93904289366766,
        "Longitude(deg)": -32.84004162600441,
        "Mean Anomaly(deg)": -128.42867541815264,
        "RAAN(deg)": 214.99831980344103,
        "Satellite Name": "Test1 960",
        "Satellite Number": 960,
        "Semi-Major Axis(m)": 6980739.136638005,
        "Time(s)": 40
    },
    {
        "Altitude(m)": 618665.4805852345,
        "Argument of Periapsis(deg)": 0.0005209472956648203,
        "Eccentricity": 0.0,
        "Inclination(deg)": 60.0,
        "Latitude(deg)": -43.391028597959114,
        "Longitude(deg)": -32.30322216880647,
        "Mean Anomaly(deg)": -127.80856927269083,
        "RAAN(deg)": 214.99789975430127,
        "Satellite Name": "Test1 960",
        "Satellite Number": 960,
        "Semi-Major Axis(m)": 6980739.136638005,
        "Time(s)": 50
    },
    {
        "Altitude(m)": 618850.6637977805,
        "Argument of Periapsis(deg)": 0.0006251367547977843,
        "Eccentricity": 0.0,
        "Inclination(deg)": 60.0,
        "Latitude(deg)": -43.839999335472804,
        "Longitude(deg)": -31.757796708884104,
        "Mean Anomaly(deg)": -127.18846312722897,
        "RAAN(deg)": 214.99747970516157,
        "Satellite Name": "Test1 960",
        "Satellite Number": 960,
        "Semi-Major Axis(m)": 6980739.136638005,
        "Time(s)": 60
    },
    {
        "Altitude(m)": 619034.3607273542,
        "Argument of Periapsis(deg)": 0.0007293262139307483,
        "Eccentricity": 0.0,
        "Inclination(deg)": 60.0,
        "Latitude(deg)": -44.28586428791993,
        "Longitude(deg)": -31.203557516239417,
        "Mean Anomaly(deg)": -126.56835698176721,
        "RAAN(deg)": 214.9970596560218,
        "Satellite Name": "Test1 960",
        "Satellite Number": 960,
        "Semi-Major Axis(m)": 6980739.136638005,
        "Time(s)": 70
    },
    {
        "Altitude(m)": 619216.5005472611,
        "Argument of Periapsis(deg)": 0.0008335156730637124,
        "Eccentricity": 0.0,
        "Inclination(deg)": 60.0,
        "Latitude(deg)": -44.72852979662048,
        "Longitude(deg)": -30.640294559267446,
        "Mean Anomaly(deg)": -125.94825083630533,
        "RAAN(deg)": 214.99663960688207,
        "Satellite Name": "Test1 960",
        "Satellite Number": 960,
        "Semi-Major Axis(m)": 6980739.136638005,
        "Time(s)": 80
    },
    {
        "Altitude(m)": 619397.0129641454,
        "Argument of Periapsis(deg)": 0.0009377051321966765,
        "Eccentricity": 0.0,
        "Inclination(deg)": 60.0,
        "Latitude(deg)": -45.167899283356775,
        "Longitude(deg)": -30.06779518048614,
        "Mean Anomaly(deg)": -125.32814469084353,
        "RAAN(deg)": 214.9962195577423,
        "Satellite Name": "Test1 960",
        "Satellite Number": 960,
        "Semi-Major Axis(m)": 6980739.136638005,
        "Time(s)": 90
    },
    {
        "Altitude(m)": 619575.8282484767,
        "Argument of Periapsis(deg)": 0.0010418945913296407,
        "Eccentricity": 0.0,
        "Inclination(deg)": 60.0,
        "Latitude(deg)": -45.60387317173009,
        "Longitude(deg)": -29.485843800198776,
        "Mean Anomaly(deg)": -124.70803854538171,
        "RAAN(deg)": 214.9957995086026,
        "Satellite Name": "Test1 960",
        "Satellite Number": 960,
        "Semi-Major Axis(m)": 6980739.136638005,
        "Time(s)": 100
    },
    {
        "Altitude(m)": 619752.8772647958,
        "Argument of Periapsis(deg)": 0.0011460840504626045,
        "Eccentricity": 0.0,
        "Inclination(deg)": 60.0,
        "Latitude(deg)": -46.03634880940569,
        "Longitude(deg)": -28.894223163311175,
        "Mean Anomaly(deg)": -124.08793239991984,
        "RAAN(deg)": 214.99537945946287,
        "Satellite Name": "Test1 960",
        "Satellite Number": 960,
        "Semi-Major Axis(m)": 6980739.136638005,
        "Time(s)": 110
    },
    {
        "Altitude(m)": 619928.0915016684,
        "Argument of Periapsis(deg)": 0.0012502735095955685,
        "Eccentricity": 0.0,
        "Inclination(deg)": 60.0,
        "Latitude(deg)": -46.465220391674485,
        "Longitude(deg)": -28.292714106006777,
        "Mean Anomaly(deg)": -123.46782625445802,
        "RAAN(deg)": 214.9949594103231,
        "Satellite Name": "Test1 960",
        "Satellite Number": 960,
        "Semi-Major Axis(m)": 6980739.136638005,
        "Time(s)": 120
    },
    {
        "Altitude(m)": 620101.4031013456,
        "Argument of Periapsis(deg)": 0.0013544629687285324,
        "Eccentricity": 0.0,
        "Inclination(deg)": 60.0,
        "Latitude(deg)": -46.890378886814894,
        "Longitude(deg)": -27.681095357719986,
        "Mean Anomaly(deg)": -122.84772010899617,
        "RAAN(deg)": 214.99453936118334,
        "Satellite Name": "Test1 960",
        "Satellite Number": 960,
        "Semi-Major Axis(m)": 6980739.136638005,
        "Time(s)": 130
    },
    {
        "Altitude(m)": 620272.7448891152,
        "Argument of Periapsis(deg)": 0.0014586524278614966,
        "Eccentricity": 0.0,
        "Inclination(deg)": 60.0,
        "Latitude(deg)": -47.311711963791254,
        "Longitude(deg)": -27.05914489394687,
        "Mean Anomaly(deg)": -122.22761396353435,
        "RAAN(deg)": 214.99411931204364,
        "Satellite Name": "Test1 960",
        "Satellite Number": 960,
        "Semi-Major Axis(m)": 6980739.136638005,
        "Time(s)": 140
    },
    {
        "Altitude(m)": 620442.050402323,
        "Argument of Periapsis(deg)": 0.0015628418869944607,
        "Eccentricity": 0.0,
        "Inclination(deg)": 60.0,
        "Latitude(deg)": -47.729103922878146,
        "Longitude(deg)": -26.426639816890344,
        "Mean Anomaly(deg)": -121.60750781807248,
        "RAAN(deg)": 214.99369926290385,
        "Satellite Name": "Test1 960",
        "Satellite Number": 960,
        "Semi-Major Axis(m)": 6980739.136638005,
        "Time(s)": 150
    },
    {
        "Altitude(m)": 620609.2539191082,
        "Argument of Periapsis(deg)": 0.0016670313461274247,
        "Eccentricity": 0.0,
        "Inclination(deg)": 60.0,
        "Latitude(deg)": -48.14243562986349,
        "Longitude(deg)": -25.78335627964065,
        "Mean Anomaly(deg)": -120.98740167261072,
        "RAAN(deg)": 214.99327921376414,
        "Satellite Name": "Test1 960",
        "Satellite Number": 960,
        "Semi-Major Axis(m)": 6980739.136638005,
        "Time(s)": 160
    },
    {
        "Altitude(m)": 620774.2904867181,
        "Argument of Periapsis(deg)": 0.0017712208052603888,
        "Eccentricity": 0.0,
        "Inclination(deg)": 60.0,
        "Latitude(deg)": -48.55158445455184,
        "Longitude(deg)": -25.12907096963738,
        "Mean Anomaly(deg)": -120.36729552714885,
        "RAAN(deg)": 214.99285916462438,
        "Satellite Name": "Test1 960",
        "Satellite Number": 960,
        "Semi-Major Axis(m)": 6980739.136638005,
        "Time(s)": 170
    },
    {
        "Altitude(m)": 620937.0959495434,
        "Argument of Periapsis(deg)": 0.001875410264393353,
        "Eccentricity": 0.0,
        "Inclination(deg)": 60.0,
        "Latitude(deg)": -48.95642421434443,
        "Longitude(deg)": -24.46356112857057,
        "Mean Anomaly(deg)": -119.7471893816871,
        "RAAN(deg)": 214.99243911548464,
        "Satellite Name": "Test1 960",
        "Satellite Number": 960,
        "Semi-Major Axis(m)": 6980739.136638005,
        "Time(s)": 180
    },
    {
        "Altitude(m)": 621097.6069767411,
        "Argument of Periapsis(deg)": 0.0019795997235263173,
        "Eccentricity": 0.0,
        "Inclination(deg)": 60.0,
        "Latitude(deg)": -49.356825123755705,
        "Longitude(deg)": -23.78660462449718,
        "Mean Anomaly(deg)": -119.12708323622522,
        "RAAN(deg)": 214.99201906634488,
        "Satellite Name": "Test1 960",
        "Satellite Number": 960,
        "Semi-Major Axis(m)": 6980739.136638005,
        "Time(s)": 190
    }
]